start=new Date('2021-10-28T00:00:00.000Z').valueOf();
sats=[{"INCLINATION":"53.0563","OBJECT_NAME":"STARLINK-1199","ECCENTRICITY":"0.00012030","ELEMENT_SET_NO":"999","MEAN_MOTION_DOT":"0.00000693","MEAN_MOTION":"15.06395459","PERIOD":"95.592","TLE_LINE2":"2 45201  53.0563 343.8884 0001203  89.9042 270.2084 15.06395459 94814","SEMIMAJOR_AXIS":"6925.362","OBJECT_ID":"2020-012Z","EPHEMERIS_TYPE":"0","TIME_SYSTEM":"UTC","GP_ID":"188269898","FILE":"3187107","PERIAPSIS":"546.394","REV_AT_EPOCH":"9481","EPOCH":"2021-10-27T08:26:44.605824","OBJECT_TYPE":"PAYLOAD","BSTAR":"0.00006540200000","APOAPSIS":"548.061","TLE_LINE1":"1 45201U 20012Z   21300.35190516  .00000693  00000-0  65402-4 0  9992","SITE":"AFETR","MEAN_MOTION_DDOT":"0.0000000000000","MEAN_ANOMALY":"270.2084","CLASSIFICATION_TYPE":"U","DECAY_DATE":null,"MEAN_ELEMENT_THEORY":"SGP4","REF_FRAME":"TEME","LAUNCH_DATE":"2020-02-17","ARG_OF_PERICENTER":"89.9042","RCS_SIZE":"LARGE","COUNTRY_CODE":"US","RA_OF_ASC_NODE":"343.8884","CENTER_NAME":"EARTH","NORAD_CAT_ID":"45201"},{"COUNTRY_CODE":"US","RA_OF_ASC_NODE":"358.7809","RCS_SIZE":"LARGE","NORAD_CAT_ID":"45202","CENTER_NAME":"EARTH","REF_FRAME":"TEME","LAUNCH_DATE":"2020-02-17","MEAN_ELEMENT_THEORY":"SGP4","ARG_OF_PERICENTER":"98.3975","SITE":"AFETR","MEAN_MOTION_DDOT":"0.0000000000000","MEAN_ANOMALY":"261.7119","CLASSIFICATION_TYPE":"U","DECAY_DATE":null,"TLE_LINE1":"1 45202U 20012AA  21300.35244358  .00005963  00000-0  39609-3 0  9991","APOAPSIS":"541.451","EPOCH":"2021-10-27T08:27:31.125312","OBJECT_TYPE":"PAYLOAD","BSTAR":"0.00039609000000","REV_AT_EPOCH":"9460","PERIAPSIS":"540.175","FILE":"3187107","GP_ID":"188270148","SEMIMAJOR_AXIS":"6918.948","OBJECT_ID":"2020-012AA","PERIOD":"95.460","TLE_LINE2":"2 45202  52.9832 358.7809 0000922  98.3975 261.7119 15.08490654 94606","TIME_SYSTEM":"UTC","EPHEMERIS_TYPE":"0","INCLINATION":"52.9832","MEAN_MOTION_DOT":"0.00005963","ELEMENT_SET_NO":"999","MEAN_MOTION":"15.08490654","ECCENTRICITY":"0.00009220","OBJECT_NAME":"STARLINK-1203"},{"SITE":"AFETR","MEAN_MOTION_DDOT":"0.0000000000000","MEAN_ANOMALY":"305.4602","CLASSIFICATION_TYPE":"U","DECAY_DATE":null,"APOAPSIS":"447.067","TLE_LINE1":"1 45203U 20012AB  21300.71400117  .00442921  00000-0  10325-1 0  9990","RCS_SIZE":"LARGE","COUNTRY_CODE":"US","RA_OF_ASC_NODE":"329.7874","NORAD_CAT_ID":"45203","CENTER_NAME":"EARTH","MEAN_ELEMENT_THEORY":"SGP4","REF_FRAME":"TEME","LAUNCH_DATE":"2020-02-17","ARG_OF_PERICENTER":"54.6529","PERIOD":"93.507","TLE_LINE2":"2 45203  53.0534 329.7874 0001364  54.6529 305.4602 15.39991446 94050","SEMIMAJOR_AXIS":"6824.272","OBJECT_ID":"2020-012AB","EPHEMERIS_TYPE":"0","TIME_SYSTEM":"UTC","INCLINATION":"53.0534","OBJECT_NAME":"STARLINK-1204","ECCENTRICITY":"0.00013640","ELEMENT_SET_NO":"999","MEAN_MOTION_DOT":"0.00442921","MEAN_MOTION":"15.39991446","PERIAPSIS":"445.206","REV_AT_EPOCH":"9405","EPOCH":"2021-10-27T17:08:09.701088","OBJECT_TYPE":"PAYLOAD","BSTAR":"0.01032500000000","GP_ID":"188281535","FILE":"3187496"},{"MEAN_ELEMENT_THEORY":"SGP4","LAUNCH_DATE":"2020-02-17","REF_FRAME":"TEME","ARG_OF_PERICENTER":"82.9963","RCS_SIZE":"LARGE","RA_OF_ASC_NODE":"343.7533","COUNTRY_CODE":"US","CENTER_NAME":"EARTH","NORAD_CAT_ID":"45204","APOAPSIS":"548.136","TLE_LINE1":"1 45204U 20012AC  21300.37770349  .00000489  00000-0  51693-4 0  9995","MEAN_MOTION_DDOT":"0.0000000000000","SITE":"AFETR","CLASSIFICATION_TYPE":"U","DECAY_DATE":null,"MEAN_ANOMALY":"277.1177","GP_ID":"188271650","FILE":"3187107","PERIAPSIS":"546.298","REV_AT_EPOCH":"9483","BSTAR":"0.00005169300000","EPOCH":"2021-10-27T09:03:53.581536","OBJECT_TYPE":"PAYLOAD","INCLINATION":"53.0550","OBJECT_NAME":"STARLINK-1206","ECCENTRICITY":"0.00013270","MEAN_MOTION":"15.06398884","ELEMENT_SET_NO":"999","MEAN_MOTION_DOT":"0.00000489","TLE_LINE2":"2 45204  53.0550 343.7533 0001327  82.9963 277.1177 15.06398884 94831","PERIOD":"95.592","OBJECT_ID":"2020-012AC","SEMIMAJOR_AXIS":"6925.352","EPHEMERIS_TYPE":"0","TIME_SYSTEM":"UTC"},{"NORAD_CAT_ID":"45205","CENTER_NAME":"EARTH","COUNTRY_CODE":"US","RA_OF_ASC_NODE":"343.6607","RCS_SIZE":"LARGE","ARG_OF_PERICENTER":"75.4764","LAUNCH_DATE":"2020-02-17","REF_FRAME":"TEME","MEAN_ELEMENT_THEORY":"SGP4","CLASSIFICATION_TYPE":"U","DECAY_DATE":null,"MEAN_ANOMALY":"284.6361","MEAN_MOTION_DDOT":"0.0000000000000","SITE":"AFETR","TLE_LINE1":"1 45205U 20012AD  21300.39982378 -.00001478  00000-0 -80380-4 0  9991","APOAPSIS":"548.055","BSTAR":"-0.00008038000000","OBJECT_TYPE":"PAYLOAD","EPOCH":"2021-10-27T09:35:44.774592","REV_AT_EPOCH":"9484","PERIAPSIS":"546.361","FILE":"3187107","GP_ID":"188270398","TIME_SYSTEM":"UTC","EPHEMERIS_TYPE":"0","OBJECT_ID":"2020-012AD","SEMIMAJOR_AXIS":"6925.343","TLE_LINE2":"2 45205  53.0552 343.6607 0001223  75.4764 284.6361 15.06401833 94844","PERIOD":"95.592","MEAN_MOTION":"15.06401833","ELEMENT_SET_NO":"999","MEAN_MOTION_DOT":"-0.00001478","ECCENTRICITY":"0.00012230","OBJECT_NAME":"STARLINK-1208","INCLINATION":"53.0552"},{"TIME_SYSTEM":"UTC","EPHEMERIS_TYPE":"0","PERIOD":"95.592","TLE_LINE2":"2 45206  53.0559 323.5492 0001199  81.4465 278.6660 15.06401183 94155","SEMIMAJOR_AXIS":"6925.345","OBJECT_ID":"2020-012AE","OBJECT_NAME":"STARLINK-1209","ECCENTRICITY":"0.00011990","MEAN_MOTION_DOT":"0.00000603","ELEMENT_SET_NO":"999","MEAN_MOTION":"15.06401183","INCLINATION":"53.0559","REV_AT_EPOCH":"9415","PERIAPSIS":"546.380","EPOCH":"2021-10-27T10:15:33.718176","OBJECT_TYPE":"PAYLOAD","BSTAR":"0.00005939100000","GP_ID":"188281546","FILE":"3187497","MEAN_ANOMALY":"278.6660","DECAY_DATE":null,"CLASSIFICATION_TYPE":"U","SITE":"AFETR","MEAN_MOTION_DDOT":"0.0000000000000","APOAPSIS":"548.040","TLE_LINE1":"1 45206U 20012AE  21300.42747359  .00000603  00000-0  59391-4 0  9999","NORAD_CAT_ID":"45206","CENTER_NAME":"EARTH","RCS_SIZE":"LARGE","COUNTRY_CODE":"US","RA_OF_ASC_NODE":"323.5492","ARG_OF_PERICENTER":"81.4465","MEAN_ELEMENT_THEORY":"SGP4","REF_FRAME":"TEME","LAUNCH_DATE":"2020-02-17"},{"INCLINATION":"53.0557","ECCENTRICITY":"0.00011540","OBJECT_NAME":"STARLINK-1210","MEAN_MOTION":"15.06397737","ELEMENT_SET_NO":"999","MEAN_MOTION_DOT":"0.00000117","TLE_LINE2":"2 45207  53.0557 343.8602 0001154  82.1637 277.9483 15.06397737 94819","PERIOD":"95.592","OBJECT_ID":"2020-012AF","SEMIMAJOR_AXIS":"6925.355","EPHEMERIS_TYPE":"0","TIME_SYSTEM":"UTC","GP_ID":"188271400","FILE":"3187107","REV_AT_EPOCH":"9481","PERIAPSIS":"546.421","BSTAR":"0.00002671700000","EPOCH":"2021-10-27T08:32:03.017472","OBJECT_TYPE":"PAYLOAD","APOAPSIS":"548.020","TLE_LINE1":"1 45207U 20012AF  21300.35559048  .00000117  00000-0  26717-4 0  9994","MEAN_MOTION_DDOT":"0.0000000000000","SITE":"AFETR","DECAY_DATE":null,"CLASSIFICATION_TYPE":"U","MEAN_ANOMALY":"277.9483","MEAN_ELEMENT_THEORY":"SGP4","LAUNCH_DATE":"2020-02-17","REF_FRAME":"TEME","ARG_OF_PERICENTER":"82.1637","RCS_SIZE":"LARGE","COUNTRY_CODE":"US","RA_OF_ASC_NODE":"343.8602","NORAD_CAT_ID":"45207","CENTER_NAME":"EARTH"},{"FILE":"3187497","GP_ID":"188281539","BSTAR":"0.00013162000000","OBJECT_TYPE":"PAYLOAD","EPOCH":"2021-10-27T14:06:24.212736","REV_AT_EPOCH":"9388","PERIAPSIS":"548.998","MEAN_MOTION":"15.05595815","ELEMENT_SET_NO":"999","MEAN_MOTION_DOT":"0.00001640","OBJECT_NAME":"STARLINK-1211","ECCENTRICITY":"0.00009840","INCLINATION":"52.9996","TIME_SYSTEM":"UTC","EPHEMERIS_TYPE":"0","OBJECT_ID":"2020-012AG","SEMIMAJOR_AXIS":"6927.814","TLE_LINE2":"2 45208  52.9996 342.8199 0000984  78.5944 281.5154 15.05595815 93883","PERIOD":"95.643","ARG_OF_PERICENTER":"78.5944","LAUNCH_DATE":"2020-02-17","REF_FRAME":"TEME","MEAN_ELEMENT_THEORY":"SGP4","CENTER_NAME":"EARTH","NORAD_CAT_ID":"45208","RA_OF_ASC_NODE":"342.8199","COUNTRY_CODE":"US","RCS_SIZE":"LARGE","TLE_LINE1":"1 45208U 20012AG  21300.58778024  .00001640  00000-0  13162-3 0  9998","APOAPSIS":"550.361","CLASSIFICATION_TYPE":"U","DECAY_DATE":null,"MEAN_ANOMALY":"281.5154","MEAN_MOTION_DDOT":"0.0000000000000","SITE":"AFETR"},{"APOAPSIS":"363.477","TLE_LINE1":"1 45209U 20012AH  21300.26245650  .00007523  00000-0  66854-4 0  9991","MEAN_ANOMALY":"326.0673","DECAY_DATE":null,"CLASSIFICATION_TYPE":"U","SITE":"AFETR","MEAN_MOTION_DDOT":"0.0000000000000","ARG_OF_PERICENTER":"34.0704","MEAN_ELEMENT_THEORY":"SGP4","REF_FRAME":"TEME","LAUNCH_DATE":"2020-02-17","NORAD_CAT_ID":"45209","CENTER_NAME":"EARTH","RCS_SIZE":"LARGE","COUNTRY_CODE":"US","RA_OF_ASC_NODE":"287.3725","OBJECT_NAME":"STARLINK-1218","ECCENTRICITY":"0.00056270","MEAN_MOTION_DOT":"0.00007523","ELEMENT_SET_NO":"999","MEAN_MOTION":"15.69725027","INCLINATION":"53.0538","TIME_SYSTEM":"UTC","EPHEMERIS_TYPE":"0","PERIOD":"91.736","TLE_LINE2":"2 45209  53.0538 287.3725 0005627  34.0704 326.0673 15.69725027 95542","SEMIMAJOR_AXIS":"6737.821","OBJECT_ID":"2020-012AH","GP_ID":"188269899","FILE":"3187107","PERIAPSIS":"355.894","REV_AT_EPOCH":"9554","EPOCH":"2021-10-27T06:17:56.241600","OBJECT_TYPE":"PAYLOAD","BSTAR":"0.00006685400000"},{"ARG_OF_PERICENTER":"82.5688","MEAN_ELEMENT_THEORY":"SGP4","REF_FRAME":"TEME","LAUNCH_DATE":"2020-02-17","NORAD_CAT_ID":"45210","CENTER_NAME":"EARTH","RCS_SIZE":"LARGE","COUNTRY_CODE":"US","RA_OF_ASC_NODE":"343.8568","APOAPSIS":"548.043","TLE_LINE1":"1 45210U 20012AJ  21300.35927914 -.00001504  00000-0 -82117-4 0  9998","MEAN_ANOMALY":"277.5435","DECAY_DATE":null,"CLASSIFICATION_TYPE":"U","SITE":"AFETR","MEAN_MOTION_DDOT":"0.0000000000000","GP_ID":"188270149","FILE":"3187107","REV_AT_EPOCH":"9470","PERIAPSIS":"546.405","OBJECT_TYPE":"PAYLOAD","EPOCH":"2021-10-27T08:37:21.717696","BSTAR":"-0.00008211700000","OBJECT_NAME":"STARLINK-1219","ECCENTRICITY":"0.00011830","MEAN_MOTION_DOT":"-0.00001504","ELEMENT_SET_NO":"999","MEAN_MOTION":"15.06396605","INCLINATION":"53.0558","EPHEMERIS_TYPE":"0","TIME_SYSTEM":"UTC","PERIOD":"95.592","TLE_LINE2":"2 45210  53.0558 343.8568 0001183  82.5688 277.5435 15.06396605 94701","SEMIMAJOR_AXIS":"6925.359","OBJECT_ID":"2020-012AJ"}];
